Location,Clubname,League,Latitude,Longitude,Address,Facility_Type,Size
Albert College,Drumcondra F.C (Snr),Amateur Football League,53.3854709,-6.26080914918107,"Albert College (A), Albert College Avenue, Albert College Estate, Wad, Whitehall A Ed, Dublin 9, Dublin, County Dublin, Leinster, D09 Fw22, Ireland",Soccer,nan
Albert College,Glasnevin Afc,Amateur Football League,53.3854709,-6.26080914918107,"Albert College (A), Albert College Avenue, Albert College Estate, Wad, Whitehall A Ed, Dublin 9, Dublin, County Dublin, Leinster, D09 Fw22, Ireland",Soccer,nan
Beechill,Ballsbridge Fc,Amateur Football League,53.3175917,-6.2330531,"Beechill Ave (Beaver Row), Beech Hill Estate, Smotscourt, Pembroke East D Ed, Dublin 4, Dublin, County Dublin, Leinster, D04 Pv32, Ireland",Soccer,nan
Belcamp,Newtown Celtic,Amateur Football League,53.4068274,-6.19692618719913,"Belcamp, Priorswood B Ed, Dublin 17, Dublin, County Dublin, Leinster, 17, Ireland",Soccer,nan
Belcamp,Vianney Boys,Amateur Football League,53.4068274,-6.19692618719913,"Belcamp, Priorswood B Ed, Dublin 17, Dublin, County Dublin, Leinster, 17, Ireland",Soccer,nan
Belcamp,Priorswood F.C Seniors,Amateur Football League,53.4068274,-6.19692618719913,"Belcamp, Priorswood B Ed, Dublin 17, Dublin, County Dublin, Leinster, 17, Ireland",Soccer,nan
Belcamp,Whites F.C,Amateur Football League,53.4068274,-6.19692618719913,"Belcamp, Priorswood B Ed, Dublin 17, Dublin, County Dublin, Leinster, 17, Ireland",Soccer,nan
Belcamp,Urban Celtic,Amateur Football League,53.4068274,-6.19692618719913,"Belcamp, Priorswood B Ed, Dublin 17, Dublin, County Dublin, Leinster, 17, Ireland",Soccer,nan
Belcamp,Clonshaugh Sporting Suazee,Amateur Football League,53.4068274,-6.19692618719913,"Belcamp, Priorswood B Ed, Dublin 17, Dublin, County Dublin, Leinster, 17, Ireland",Soccer,nan
Darndale,J.K. Celtic,Amateur Football League,53.4009603,-6.19403177988914,"Darndale, Priorswood C Ed, Dublin 17, Dublin, County Dublin, Leinster, Ireland",Soccer,nan
Donaghmede,Baldoyle O/35'S,Amateur Football League,53.3948612,-6.1635775,"Donaghmede, Grange C Ed, Dublin 13, Dublin, County Dublin, Leinster, Dublin 13, Ireland",Soccer,nan
John Paul,Faussaugh Utd. F.C,Amateur Football League,53.3631256,-6.2361861,"John Paul Photography Ltd, 9, Fairview, Ballybough, Clontarf West D Ed, Dublin 3, Dublin, County Dublin, Leinster, D03 Ya26, Ireland",Soccer,nan
Kilmore,Shelbourne F.C,Amateur Football League,54.40024675,-6.55048274536792,"Kilmore, Armagh, County Armagh, Northern Ireland, Uk",Soccer,nan
Kilmore,Vianney Boys,Amateur Football League,54.40024675,-6.55048274536792,"Kilmore, Armagh, County Armagh, Northern Ireland, Uk",Soccer,nan
Markievicz,Our Lady Of Victories F.C.,Amateur Football League,53.3410089,-6.34005570272641,"Markievicz Park, Ballyfermot Lower, Decies Ed, Dublin 10, Dublin, County Dublin, Leinster, Ireland",Soccer,nan
Mount Olive,Kilmount Boys,Amateur Football League,0.0,0.0,0,Soccer,nan
Oscar Traynor,Kilmore Celtic,Amateur Football League,53.3977132,-6.2225083,"Oscar Traynor Road, Kilmore Big, Kilmore B Ed, Dublin 17, Dublin, County Dublin, Leinster, D17 A076, Ireland",Soccer,nan
Ringsend,St. Marks Athletic,Amateur Football League,53.341944,-6.226389,"Ringsend, Pembroke East A Ed, Dublin 4, Dublin, County Dublin, Leinster, Ireland",Soccer,nan
Ringsend,Irishtown F.C.,Amateur Football League,53.341944,-6.226389,"Ringsend, Pembroke East A Ed, Dublin 4, Dublin, County Dublin, Leinster, Ireland",Soccer,nan
St. Annes,Vianney Boys,Amateur Football League,53.2651078,-6.3609563,"Saint Anne'S, Bohernabreena Ed, Dublin 24, South Dublin, County Dublin, Leinster, D24 P892, Ireland",Soccer,nan
St. Annes,Chanel Sports & Social Club,Amateur Football League,53.2651078,-6.3609563,"Saint Anne'S, Bohernabreena Ed, Dublin 24, South Dublin, County Dublin, Leinster, D24 P892, Ireland",Soccer,nan
St. Annes,Marino Athletic,Amateur Football League,53.2651078,-6.3609563,"Saint Anne'S, Bohernabreena Ed, Dublin 24, South Dublin, County Dublin, Leinster, D24 P892, Ireland",Soccer,nan
St. Annes,Kansas City Shufflers,Amateur Football League,53.2651078,-6.3609563,"Saint Anne'S, Bohernabreena Ed, Dublin 24, South Dublin, County Dublin, Leinster, D24 P892, Ireland",Soccer,nan
St. Annes,Smithfield F.C.,Amateur Football League,53.2651078,-6.3609563,"Saint Anne'S, Bohernabreena Ed, Dublin 24, South Dublin, County Dublin, Leinster, D24 P892, Ireland",Soccer,nan
St. Annes,Celtic Park Fc,Amateur Football League,53.2651078,-6.3609563,"Saint Anne'S, Bohernabreena Ed, Dublin 24, South Dublin, County Dublin, Leinster, D24 P892, Ireland",Soccer,nan
St. Annes,St. Gabriels F.C.,Amateur Football League,53.2651078,-6.3609563,"Saint Anne'S, Bohernabreena Ed, Dublin 24, South Dublin, County Dublin, Leinster, D24 P892, Ireland",Soccer,nan
St. Annes,Bacchus F.C.,Amateur Football League,53.2651078,-6.3609563,"Saint Anne'S, Bohernabreena Ed, Dublin 24, South Dublin, County Dublin, Leinster, D24 P892, Ireland",Soccer,nan
St. Annes,Shelbourne Sports & Social Club,Amateur Football League,53.2651078,-6.3609563,"Saint Anne'S, Bohernabreena Ed, Dublin 24, South Dublin, County Dublin, Leinster, D24 P892, Ireland",Soccer,nan
Walkinstown,Tracta F.C.,Amateur Football League,53.3216133,-6.3301177,"Walkinstown, Walkinstown B Ed, Dublin 12, Dublin, County Dublin, Leinster, Ireland",Soccer,nan
Fr. Collins,Wyteleaf United F.C.,Amateur Football League/Athletic Union League,0.0,0.0,0,Soccer,nan
Millbrook,Wyteleaf United F.C.,Amateur Football League/Athletic Union League,53.31905805,-6.23539135743444,"Millbrook, 29, Eglinton Road, Donnybrook East, Rathmines East B Ed, Dublin 4, Dublin, County Dublin, Leinster, D04 Pv32, Ireland",Soccer,nan
Albert College,Greenfield Park Boys F.C,Athletic Union League,53.3854709,-6.26080914918107,"Albert College (A), Albert College Avenue, Albert College Estate, Wad, Whitehall A Ed, Dublin 9, Dublin, County Dublin, Leinster, D09 Fw22, Ireland",Soccer,nan
Alfie Byrne,Eastwall Bessborough Utd.,Athletic Union League,53.361111,-6.2279928,"Alfie Byrne Road, Clontarf West, Clontarf West D Ed, Dublin 3, Dublin, County Dublin, Leinster, D03 Ya26, Ireland",Soccer,nan
Coultry,Shangan Athletic,Athletic Union League,53.4223167,-6.26304854422187,"Coultry, Airport Ed, Saint Margaret’S, Fingal, County Dublin, Leinster, Ireland",Soccer,nan
Darndale,Darndale Rovers,Athletic Union League,53.4009603,-6.19403177988914,"Darndale, Priorswood C Ed, Dublin 17, Dublin, County Dublin, Leinster, Ireland",Soccer,nan
Donaghmede,Cardonagh A.F.C,Athletic Union League,53.3948612,-6.1635775,"Donaghmede, Grange C Ed, Dublin 13, Dublin, County Dublin, Leinster, Dublin 13, Ireland",Soccer,nan
Farnham,Finglas South F.C.,Athletic Union League,53.3840936,-6.3003502,"Farnham Drive, Finglas East, Finglas South B Ed, Dublin 11, Dublin, County Dublin, Leinster, D11 K254, Ireland",Soccer,nan
Irishtown,Markievicz Celtic F.C.,Athletic Union League,53.5324945,-6.22615702070604,"Irishtown, Lusk Ed, Ballyboughal, Fingal, County Dublin, Leinster, Ireland",Soccer,nan
John Paul,Broombridge Utd,Athletic Union League,53.3631256,-6.2361861,"John Paul Photography Ltd, 9, Fairview, Ballybough, Clontarf West D Ed, Dublin 3, Dublin, County Dublin, Leinster, D03 Ya26, Ireland",Soccer,nan
Johnstown,Griffith Rovers F.C.,Athletic Union League,53.54157665,-6.22770962799422,"Johnstown, Lusk Ed, Ballyboughal, Fingal, County Dublin, Leinster, Ireland",Soccer,nan
Kildonan,W.F.T.A. F.C. Snr.,Athletic Union League,53.4040962,-6.3193021645909,"Kildonan, The Ward Ed, Saint Margaret’S, Fingal, County Dublin, Leinster, Ireland",Soccer,nan
Le Fanu,Musgrave F.C.,Athletic Union League,53.3358185,-6.3541441,"Le Fanu Bridge, Ballyfermot Lower, Kylemore Ed, Dublin 10, Dublin, County Dublin, Leinster, Dublin 10, Ireland",Soccer,nan
Le Fanu,V.O.F.C,Athletic Union League,53.3358185,-6.3541441,"Le Fanu Bridge, Ballyfermot Lower, Kylemore Ed, Dublin 10, Dublin, County Dublin, Leinster, Dublin 10, Ireland",Soccer,nan
Le Fanu,Ballyfermot Football Club,Athletic Union League,53.3358185,-6.3541441,"Le Fanu Bridge, Ballyfermot Lower, Kylemore Ed, Dublin 10, Dublin, County Dublin, Leinster, Dublin 10, Ireland",Soccer,nan
Le Fanu,Clifden Celtic,Athletic Union League,53.3358185,-6.3541441,"Le Fanu Bridge, Ballyfermot Lower, Kylemore Ed, Dublin 10, Dublin, County Dublin, Leinster, Dublin 10, Ireland",Soccer,nan
Le Fanu,Raheen Celtic,Athletic Union League,53.3358185,-6.3541441,"Le Fanu Bridge, Ballyfermot Lower, Kylemore Ed, Dublin 10, Dublin, County Dublin, Leinster, Dublin 10, Ireland",Soccer,nan
Lein Road,Harmonstown F.C,Athletic Union League,53.3829908,-6.1889192,"Lein Road;Ribh Avenue, Ballyhoy, Harmonstown B Ed, Dublin 5, Dublin, County Dublin, Leinster, 3, Ireland",Soccer,nan
Markievicz,Landen Utd,Athletic Union League,53.3410089,-6.34005570272641,"Markievicz Park, Ballyfermot Lower, Decies Ed, Dublin 10, Dublin, County Dublin, Leinster, Ireland",Soccer,nan
Mellowes,Mckelvey Celtic,Athletic Union League,53.3898277,-6.3068943,"Mellowes Road, Cardiffscastle, Finglas North B Ed, Dublin 11, Dublin, County Dublin, Leinster, D11 K254, Ireland",Soccer,nan
Mellowes,Finglas Wanderers F.C,Athletic Union League,53.3898277,-6.3068943,"Mellowes Road, Cardiffscastle, Finglas North B Ed, Dublin 11, Dublin, County Dublin, Leinster, D11 K254, Ireland",Soccer,nan
Millbrook,Ayrfield United,Athletic Union League,53.31905805,-6.23539135743444,"Millbrook, 29, Eglinton Road, Donnybrook East, Rathmines East B Ed, Dublin 4, Dublin, County Dublin, Leinster, D04 Pv32, Ireland",Soccer,nan
Oscar Traynor,Shamrock Celtic F.C.,Athletic Union League,53.3977132,-6.2225083,"Oscar Traynor Road, Kilmore Big, Kilmore B Ed, Dublin 17, Dublin, County Dublin, Leinster, D17 A076, Ireland",Soccer,nan
Plunkett Avenue,Valley Park United,Athletic Union League,53.3981308,-6.3120612,"Plunkett Avenue, Cardiffscastle, Finglas North A Ed, Dublin 11, Dublin, County Dublin, Leinster, Dublin 11, Ireland",Soccer,nan
Poppintree,Buttercrust United,Athletic Union League,53.40234405,-6.28712461437514,"Poppintree (Finglas), Ballymun A Ed, Dublin 11, Dublin, County Dublin, Leinster, Ireland",Soccer,nan
Poppintree,Belclare Celtic,Athletic Union League,53.40234405,-6.28712461437514,"Poppintree (Finglas), Ballymun A Ed, Dublin 11, Dublin, County Dublin, Leinster, Ireland",Soccer,nan
Ringsend,Markievicz Celtic F.C.,Athletic Union League,53.341944,-6.226389,"Ringsend, Pembroke East A Ed, Dublin 4, Dublin, County Dublin, Leinster, Ireland",Soccer,nan
Ringsend,Bridge United,Athletic Union League,53.341944,-6.226389,"Ringsend, Pembroke East A Ed, Dublin 4, Dublin, County Dublin, Leinster, Ireland",Soccer,nan
St. Annes,Donnycarney F.C,Athletic Union League,53.2651078,-6.3609563,"Saint Anne'S, Bohernabreena Ed, Dublin 24, South Dublin, County Dublin, Leinster, D24 P892, Ireland",Soccer,nan
St. Annes,O'Casey Celtic,Athletic Union League,53.2651078,-6.3609563,"Saint Anne'S, Bohernabreena Ed, Dublin 24, South Dublin, County Dublin, Leinster, D24 P892, Ireland",Soccer,nan
St. Annes,Liberty House F.C.,Athletic Union League,53.2651078,-6.3609563,"Saint Anne'S, Bohernabreena Ed, Dublin 24, South Dublin, County Dublin, Leinster, D24 P892, Ireland",Soccer,nan
St. Annes,North Wall Y.C.,Athletic Union League,53.2651078,-6.3609563,"Saint Anne'S, Bohernabreena Ed, Dublin 24, South Dublin, County Dublin, Leinster, D24 P892, Ireland",Soccer,nan
Walkinstown,Aungier Celtic F.C.,Athletic Union League,53.3216133,-6.3301177,"Walkinstown, Walkinstown B Ed, Dublin 12, Dublin, County Dublin, Leinster, Ireland",Soccer,nan
Coultry,Sandyhill Celtic,Athletic Union League/North Dublin Schoolboys League,53.4223167,-6.26304854422187,"Coultry, Airport Ed, Saint Margaret’S, Fingal, County Dublin, Leinster, Ireland",Soccer,nan
Naul,Sandyhill Celtic,Athletic Union League/North Dublin Schoolboys League,53.5850302,-6.2888697,"Hollywood Ed, Naul, Fingal, County Dublin, Leinster, Ireland",Soccer,nan
Johnstown,St. Patricks Phoenix,Athletic Union League/Amateur Football League,53.54157665,-6.22770962799422,"Johnstown, Lusk Ed, Ballyboughal, Fingal, County Dublin, Leinster, Ireland",Soccer,nan
Alfie Byrne,Sheriff Y.C.,Athletic Union League/Dublin District Schoolboys League,53.361111,-6.2279928,"Alfie Byrne Road, Clontarf West, Clontarf West D Ed, Dublin 3, Dublin, County Dublin, Leinster, D03 Ya26, Ireland",Soccer,nan
Fairview,Sheriff Y.C.,Athletic Union League/Dublin District Schoolboys League,53.3628457,-6.2366557,"Fairview, Clontarf West D Ed, Dublin 3, Dublin, County Dublin, Leinster, D03 Dc92, Ireland",Soccer,nan
John Paul,Hardwicke F.C.,Athletic Union League/ North Dublin Schoolboys League,53.3631256,-6.2361861,"John Paul Photography Ltd, 9, Fairview, Ballybough, Clontarf West D Ed, Dublin 3, Dublin, County Dublin, Leinster, D03 Ya26, Ireland",Soccer,nan
Mc Auley,St. Brendans United,Athletic Union League/ North Dublin Schoolboys League,0.0,0.0,0,Soccer,nan
Albert College,Bohemian Schoolboys,Dublin District Schoolboys League,53.3854709,-6.26080914918107,"Albert College (A), Albert College Avenue, Albert College Estate, Wad, Whitehall A Ed, Dublin 9, Dublin, County Dublin, Leinster, D09 Fw22, Ireland",Soccer,nan
Albert College,Stella Maris,Dublin District Schoolboys League,53.3854709,-6.26080914918107,"Albert College (A), Albert College Avenue, Albert College Estate, Wad, Whitehall A Ed, Dublin 9, Dublin, County Dublin, Leinster, D09 Fw22, Ireland",Soccer,nan
Albert College,Homefarm F.C.,Dublin District Schoolboys League,53.3854709,-6.26080914918107,"Albert College (A), Albert College Avenue, Albert College Estate, Wad, Whitehall A Ed, Dublin 9, Dublin, County Dublin, Leinster, D09 Fw22, Ireland",Soccer,nan
Brickfields,Usher Boys,Dublin District Schoolboys League,53.3320387,-6.3033135,"Keeper Road, Brickfields Road, Keeper Road, Dolphinsbarn, Crumlin B Ed, Dublin 12, Dublin, County Dublin, Leinster, D12 Yk06, Ireland",Soccer,nan
Brickfields,Drimnagh Celtic,Dublin District Schoolboys League,53.3320387,-6.3033135,"Keeper Road, Brickfields Road, Keeper Road, Dolphinsbarn, Crumlin B Ed, Dublin 12, Dublin, County Dublin, Leinster, D12 Yk06, Ireland",Soccer,nan
Bunting Road,St. Patricks Athletic,Dublin District Schoolboys League,53.3201888,-6.3260332,"Bunting Road, Walkinstown, Walkinstown B Ed, Dublin 12, Dublin, County Dublin, Leinster, D12 Xf88, Ireland",Soccer,nan
Bushy,Rangers F.C.,Dublin District Schoolboys League,53.3021198,-6.29144609073588,"Bushy Park, Terenure, Terenure D Ed, Dublin 6W, Dublin, County Dublin, Leinster, Ireland",Soccer,nan
Bushy,Terenure F.C.,Dublin District Schoolboys League,53.3021198,-6.29144609073588,"Bushy Park, Terenure, Terenure D Ed, Dublin 6W, Dublin, County Dublin, Leinster, Ireland",Soccer,nan
Ellenfield,St. Kevins Boys Club,Dublin District Schoolboys League,53.3857502,-6.24044188934477,"Ellenfield Park, Clonturk, Whitehall D Ed, Dublin 9, Dublin, County Dublin, Leinster, Ireland",Soccer,nan
Fairview,Belvedere F.C.,Dublin District Schoolboys League,53.3628457,-6.2366557,"Fairview, Clontarf West D Ed, Dublin 3, Dublin, County Dublin, Leinster, D03 Dc92, Ireland",Soccer,nan
Farnham,Rivermount Boys F.C.,Dublin District Schoolboys League,53.3840936,-6.3003502,"Farnham Drive, Finglas East, Finglas South B Ed, Dublin 11, Dublin, County Dublin, Leinster, D11 K254, Ireland",Soccer,nan
Fr. Collins,Clare Hall Celtic,Dublin District Schoolboys League,0.0,0.0,0,Soccer,nan
John Paul,Dingle United,Dublin District Schoolboys League,53.3631256,-6.2361861,"John Paul Photography Ltd, 9, Fairview, Ballybough, Clontarf West D Ed, Dublin 3, Dublin, County Dublin, Leinster, D03 Ya26, Ireland",Soccer,nan
John Paul,Beggsboro Afc Schoolboys,Dublin District Schoolboys League,53.3631256,-6.2361861,"John Paul Photography Ltd, 9, Fairview, Ballybough, Clontarf West D Ed, Dublin 3, Dublin, County Dublin, Leinster, D03 Ya26, Ireland",Soccer,nan
John Paul,Beggsboro A.F.C,Dublin District Schoolboys League,53.3631256,-6.2361861,"John Paul Photography Ltd, 9, Fairview, Ballybough, Clontarf West D Ed, Dublin 3, Dublin, County Dublin, Leinster, D03 Ya26, Ireland",Soccer,nan
Johnstown,Tolka Rovers F.C.,Dublin District Schoolboys League,53.54157665,-6.22770962799422,"Johnstown, Lusk Ed, Ballyboughal, Fingal, County Dublin, Leinster, Ireland",Soccer,nan
Kildonan,W.F.T.A. S/Boys F.C.,Dublin District Schoolboys League,53.4040962,-6.3193021645909,"Kildonan, The Ward Ed, Saint Margaret’S, Fingal, County Dublin, Leinster, Ireland",Soccer,nan
Le Fanu,Ballyfermot Utd,Dublin District Schoolboys League,53.3358185,-6.3541441,"Le Fanu Bridge, Ballyfermot Lower, Kylemore Ed, Dublin 10, Dublin, County Dublin, Leinster, Dublin 10, Ireland",Soccer,nan
Le Fanu,Cherry Orchard Fc,Dublin District Schoolboys League,53.3358185,-6.3541441,"Le Fanu Bridge, Ballyfermot Lower, Kylemore Ed, Dublin 10, Dublin, County Dublin, Leinster, Dublin 10, Ireland",Soccer,nan
Markievicz,Drumfinn Celtic F.C,Dublin District Schoolboys League,53.3410089,-6.34005570272641,"Markievicz Park, Ballyfermot Lower, Decies Ed, Dublin 10, Dublin, County Dublin, Leinster, Ireland",Soccer,nan
Martin Savage,Phoenix F.C,Dublin District Schoolboys League,53.3719591,-6.3322962,"Martin Savage Memorial Monument, L3031, Ashtown, Castleknock-Park Ed, Castleknock, Fingal, County Dublin, Leinster, D15 Xkp4, Ireland",Soccer,nan
Oscar Traynor,St. Kevins Boys Club,Dublin District Schoolboys League,53.3977132,-6.2225083,"Oscar Traynor Road, Kilmore Big, Kilmore B Ed, Dublin 17, Dublin, County Dublin, Leinster, D17 A076, Ireland",Soccer,nan
Ringsend,Pearse Rangers,Dublin District Schoolboys League,53.341944,-6.226389,"Ringsend, Pembroke East A Ed, Dublin 4, Dublin, County Dublin, Leinster, Ireland",Soccer,nan
Ringsend,Cambridge Boys,Dublin District Schoolboys League,53.341944,-6.226389,"Ringsend, Pembroke East A Ed, Dublin 4, Dublin, County Dublin, Leinster, Ireland",Soccer,nan
Ringsend,St. Patricks Cy Schoolboys,Dublin District Schoolboys League,53.341944,-6.226389,"Ringsend, Pembroke East A Ed, Dublin 4, Dublin, County Dublin, Leinster, Ireland",Soccer,nan
Stannaway,St. Teresas F.C.,Dublin District Schoolboys League,53.32068665,-6.30068917285273,"Stannaway, Kimmage B Ed, Dublin 12, Dublin, County Dublin, Leinster, Ireland",Soccer,nan
Streamville,Clare Hall Celtic,Dublin District Schoolboys League,53.2475659,-6.1202158,"Streamville Court, Ballybrack, Killiney South Ed, Shankill, Dún Laoghaire-Rathdown, County Dublin, Leinster, A96 X997, Ireland",Soccer,nan
Sundrive,Lourdes Celtic,Dublin District Schoolboys League,53.3210024,-6.2913036761306,"Sundrive Park, Tonguefield, Kimmage C Ed, Dublin 12, Dublin, County Dublin, Leinster, Ireland",Soccer,nan
Tolka Valley,Rivermount Boys F.C.,Dublin District Schoolboys League,53.3803639,-6.28746075915782,"Tolka, Ballygall A Ed, Dublin 11, Dublin, County Dublin, Leinster, Ireland",Soccer,nan
Walkinstown,St. Patricks Athletic,Dublin District Schoolboys League,53.3216133,-6.3301177,"Walkinstown, Walkinstown B Ed, Dublin 12, Dublin, County Dublin, Leinster, Ireland",Soccer,nan
Benmadigan,St. John Bosco,Dublin District Schoolboys League/Leinster Senior League,53.333914,-6.3183767,"Benmadigan Road, Goldenbridge South, Crumlin A Ed, Dublin 12, Dublin, County Dublin, Leinster, D12 E026, Ireland",Soccer,nan
Brickfields,St. John Bosco,Dublin District Schoolboys League/Leinster Senior League,53.3320387,-6.3033135,"Keeper Road, Brickfields Road, Keeper Road, Dolphinsbarn, Crumlin B Ed, Dublin 12, Dublin, County Dublin, Leinster, D12 Yk06, Ireland",Soccer,nan
Poppintree,Ballymun United F.C.,Dublin District Schoolboys League/Athletic Union League,53.40234405,-6.28712461437514,"Poppintree (Finglas), Ballymun A Ed, Dublin 11, Dublin, County Dublin, Leinster, Ireland",Soccer,nan
Poppintree North,Ballymun United F.C.,Dublin District Schoolboys League/Athletic Union League,53.40234405,-6.28712461437514,"Poppintree (Finglas), Ballymun A Ed, Dublin 11, Dublin, County Dublin, Leinster, Ireland",Soccer,nan
Pearse Park,Crumlin United,Dublin District Schoolboys League/Leinster Senior League,53.2748878,-6.1425269,"Pearse Park, Thomastown, Dun Laoghaire-Sallynoggin South Ed, Dún Laoghaire, Dún Laoghaire-Rathdown, County Dublin, Leinster, A96 Ad99, Ireland",Soccer,nan
St. Annes,Raheny United,"Dublin District Schoolboys League,North Dublin Schoolboys League,Athletic Union League",53.2651078,-6.3609563,"Saint Anne'S, Bohernabreena Ed, Dublin 24, South Dublin, County Dublin, Leinster, D24 P892, Ireland",Soccer,nan
Kildonan,Finglas Celtic F.C.,"Dublin District Schoolboys League,,Athletic Union League",53.4040962,-6.3193021645909,"Kildonan, The Ward Ed, Saint Margaret’S, Fingal, County Dublin, Leinster, Ireland",Soccer,nan
Donnycarney,Killester Utd. F.C.,"Dublin District Schoolboys League,,Athletic Union League",53.3746929,-6.2197423,"Donnycarney, Grace Park Ed, Dublin 5, Dublin, County Dublin, Leinster, Ireland",Soccer,nan
Edenmore,St. Malachys Edenmore F.C.,"Dublin District Schoolboys League,,Athletic Union League",53.386264,-6.18738019366035,"Edenmore, Edenmore Ed, Dublin 5, Dublin, County Dublin, Leinster, Ireland",Soccer,nan
Lein Road,St. Pauls Artane,"Dublin District Schoolboys League,,Athletic Union League",53.3829908,-6.1889192,"Lein Road;Ribh Avenue, Ballyhoy, Harmonstown B Ed, Dublin 5, Dublin, County Dublin, Leinster, 3, Ireland",Soccer,nan
Mc Auley,St. Pauls Artane,"Dublin District Schoolboys League,,Athletic Union League",0.0,0.0,0,Soccer,nan
Springdale,St. Malachys Edenmore F.C.,"Dublin District Schoolboys League,,Athletic Union League",54.5064698,-6.7801124,"Springdale, Drumcoo, Dungannon, County Tyrone, Northern Ireland, Bt70 1El, Uk",Soccer,nan
Fr. Collins,Trinity/Donaghmede F.C.,"Dublin District Schoolboys League,Leinster Senior League",0.0,0.0,0,Soccer,nan
Stannaway,Cashel Celtic,"Dublin District Schoolboys League,Leinster Football League",53.32068665,-6.30068917285273,"Stannaway, Kimmage B Ed, Dublin 12, Dublin, County Dublin, Leinster, Ireland",Soccer,nan
Walkinstown,St. Catherines L.F.C,Dublin Womens Soccer League,53.3216133,-6.3301177,"Walkinstown, Walkinstown B Ed, Dublin 12, Dublin, County Dublin, Leinster, Ireland",Soccer,nan
Belcamp,Parnells Gaa,Gaelic Athletic Association,53.4068274,-6.19692618719913,"Belcamp, Priorswood B Ed, Dublin 17, Dublin, County Dublin, Leinster, 17, Ireland",Soccer,nan
St. Annes,Parnells Gaa,Gaelic Athletic Association,53.2651078,-6.3609563,"Saint Anne'S, Bohernabreena Ed, Dublin 24, South Dublin, County Dublin, Leinster, D24 P892, Ireland",Soccer,nan
Albert College,Na Fianna G.A.A .,Gaelic Athletic Association,53.3854709,-6.26080914918107,"Albert College (A), Albert College Avenue, Albert College Estate, Wad, Whitehall A Ed, Dublin 9, Dublin, County Dublin, Leinster, D09 Fw22, Ireland",Soccer,nan
Albert College,Ballymun Kickhams,Gaelic Athletic Association,53.3854709,-6.26080914918107,"Albert College (A), Albert College Avenue, Albert College Estate, Wad, Whitehall A Ed, Dublin 9, Dublin, County Dublin, Leinster, D09 Fw22, Ireland",Soccer,nan
Balcurris Park,Setanta,Gaelic Athletic Association,53.40424065,-6.27263549858681,"Balcurris, Ballymun B Ed, Dublin 11, Dublin, County Dublin, Leinster, Ireland",Soccer,nan
Bushy,Templeogue Synge St. G.A.A,Gaelic Athletic Association,53.3021198,-6.29144609073588,"Bushy Park, Terenure, Terenure D Ed, Dublin 6W, Dublin, County Dublin, Leinster, Ireland",Soccer,nan
Bushy,Ranelagh Gaels,Gaelic Athletic Association,53.3021198,-6.29144609073588,"Bushy Park, Terenure, Terenure D Ed, Dublin 6W, Dublin, County Dublin, Leinster, Ireland",Soccer,nan
Bushy,Kevins Hurling Club,Gaelic Athletic Association,53.3021198,-6.29144609073588,"Bushy Park, Terenure, Terenure D Ed, Dublin 6W, Dublin, County Dublin, Leinster, Ireland",Soccer,nan
Donaghmede,Trinity Gaels,Gaelic Athletic Association,53.3948612,-6.1635775,"Donaghmede, Grange C Ed, Dublin 13, Dublin, County Dublin, Leinster, Dublin 13, Ireland",Soccer,nan
Donnycarney,Craobh Chiarain,Gaelic Athletic Association,53.3746929,-6.2197423,"Donnycarney, Grace Park Ed, Dublin 5, Dublin, County Dublin, Leinster, Ireland",Soccer,nan
Ellenfield,Whitehall Colmcille,Gaelic Athletic Association,53.3857502,-6.24044188934477,"Ellenfield Park, Clonturk, Whitehall D Ed, Dublin 9, Dublin, County Dublin, Leinster, Ireland",Soccer,nan
Fairview,St. Vincents G.A.A,Gaelic Athletic Association,53.3628457,-6.2366557,"Fairview, Clontarf West D Ed, Dublin 3, Dublin, County Dublin, Leinster, D03 Dc92, Ireland",Soccer,nan
Fairview,Scoil Ui Chonaill,Gaelic Athletic Association,53.3628457,-6.2366557,"Fairview, Clontarf West D Ed, Dublin 3, Dublin, County Dublin, Leinster, D03 Dc92, Ireland",Soccer,nan
Fairview,St. Josephs/O'Connell Boys,Gaelic Athletic Association,53.3628457,-6.2366557,"Fairview, Clontarf West D Ed, Dublin 3, Dublin, County Dublin, Leinster, D03 Dc92, Ireland",Soccer,nan
Farnham,Erins Isle G.A.A.,Gaelic Athletic Association,53.3840936,-6.3003502,"Farnham Drive, Finglas East, Finglas South B Ed, Dublin 11, Dublin, County Dublin, Leinster, D11 K254, Ireland",Soccer,nan
Fr. Collins,Trinity Gaels,Gaelic Athletic Association,0.0,0.0,0,Soccer,nan
Galtymore,Good Counsel G.A.A.,Gaelic Athletic Association,53.3344399,-6.3044476,"Galtymore Road, Goldenbridge South, Crumlin B Ed, Dublin 12, Dublin, County Dublin, Leinster, Dublin 8, Ireland",Soccer,nan
John Paul,Naomh Fionnbarra,Gaelic Athletic Association,53.3631256,-6.2361861,"John Paul Photography Ltd, 9, Fairview, Ballybough, Clontarf West D Ed, Dublin 3, Dublin, County Dublin, Leinster, D03 Ya26, Ireland",Soccer,nan
Johnstown,Na Fianna G.A.A .,Gaelic Athletic Association,53.54157665,-6.22770962799422,"Johnstown, Lusk Ed, Ballyboughal, Fingal, County Dublin, Leinster, Ireland",Soccer,nan
Martin Savage,St. Oliver Plunketts Gaa.,Gaelic Athletic Association,53.3719591,-6.3322962,"Martin Savage Memorial Monument, L3031, Ashtown, Castleknock-Park Ed, Castleknock, Fingal, County Dublin, Leinster, D15 Xkp4, Ireland",Soccer,nan
Millbrook,St. Lawr. O`Toole G.A.A.,Gaelic Athletic Association,53.31905805,-6.23539135743444,"Millbrook, 29, Eglinton Road, Donnybrook East, Rathmines East B Ed, Dublin 4, Dublin, County Dublin, Leinster, D04 Pv32, Ireland",Soccer,nan
Pearse Park,Crumlin Hf&C,Gaelic Athletic Association,53.2748878,-6.1425269,"Pearse Park, Thomastown, Dun Laoghaire-Sallynoggin South Ed, Dún Laoghaire, Dún Laoghaire-Rathdown, County Dublin, Leinster, A96 Ad99, Ireland",Soccer,nan
Pearse Park,Good Counsel G.A.A.,Gaelic Athletic Association,53.2748878,-6.1425269,"Pearse Park, Thomastown, Dun Laoghaire-Sallynoggin South Ed, Dún Laoghaire, Dún Laoghaire-Rathdown, County Dublin, Leinster, A96 Ad99, Ireland",Soccer,nan
Poppintree,Ballymun Kickhams,Gaelic Athletic Association,53.40234405,-6.28712461437514,"Poppintree (Finglas), Ballymun A Ed, Dublin 11, Dublin, County Dublin, Leinster, Ireland",Soccer,nan
Poppintree,Setanta,Gaelic Athletic Association,53.40234405,-6.28712461437514,"Poppintree (Finglas), Ballymun A Ed, Dublin 11, Dublin, County Dublin, Leinster, Ireland",Soccer,nan
Ringsend,Clanna Gael Fontenoy,Gaelic Athletic Association,53.341944,-6.226389,"Ringsend, Pembroke East A Ed, Dublin 4, Dublin, County Dublin, Leinster, Ireland",Soccer,nan
Sean Moore,Clanna Gael Fontenoy,Gaelic Athletic Association,53.3392107,-6.2164504,"Sean Moore Road, Pembroke East B Ed, Dublin 4, Dublin, County Dublin, Leinster, D04 K743, Ireland",Soccer,nan
Springdale,St. Monicas G.A.A.,Gaelic Athletic Association,54.5064698,-6.7801124,"Springdale, Drumcoo, Dungannon, County Tyrone, Northern Ireland, Bt70 1El, Uk",Soccer,nan
St. Annes,St. Lawr. O`Toole G.A.A.,Gaelic Athletic Association,53.2651078,-6.3609563,"Saint Anne'S, Bohernabreena Ed, Dublin 24, South Dublin, County Dublin, Leinster, D24 P892, Ireland",Soccer,nan
St. Annes,Craobh Chiarain,Gaelic Athletic Association,53.2651078,-6.3609563,"Saint Anne'S, Bohernabreena Ed, Dublin 24, South Dublin, County Dublin, Leinster, D24 P892, Ireland",Soccer,nan
St. Annes,St. Vincents G.A.A,Gaelic Athletic Association,53.2651078,-6.3609563,"Saint Anne'S, Bohernabreena Ed, Dublin 24, South Dublin, County Dublin, Leinster, D24 P892, Ireland",Soccer,nan
St. Annes,Naomh Barrog G.A.A.,Gaelic Athletic Association,53.2651078,-6.3609563,"Saint Anne'S, Bohernabreena Ed, Dublin 24, South Dublin, County Dublin, Leinster, D24 P892, Ireland",Soccer,nan
St. Annes,Scoil Ui Chonaill,Gaelic Athletic Association,53.2651078,-6.3609563,"Saint Anne'S, Bohernabreena Ed, Dublin 24, South Dublin, County Dublin, Leinster, D24 P892, Ireland",Soccer,nan
St. Annes,Clontarf G.A.A. Club,Gaelic Athletic Association,53.2651078,-6.3609563,"Saint Anne'S, Bohernabreena Ed, Dublin 24, South Dublin, County Dublin, Leinster, D24 P892, Ireland",Soccer,nan
St. Annes,Raheny G.A.A.,Gaelic Athletic Association,53.2651078,-6.3609563,"Saint Anne'S, Bohernabreena Ed, Dublin 24, South Dublin, County Dublin, Leinster, D24 P892, Ireland",Soccer,nan
The Ranch,Liffey Gaels G.A.A.,Gaelic Athletic Association,53.34347825,-6.32916531198999,"The Ranch, Inchicore North, Kilmainham A Ed, Dublin 10, Dublin, County Dublin, Leinster, Ireland",Soccer,nan
Walkinstown,Good Counsel G.A.A.,Gaelic Athletic Association,53.3216133,-6.3301177,"Walkinstown, Walkinstown B Ed, Dublin 12, Dublin, County Dublin, Leinster, Ireland",Soccer,nan
St. Annes,Clontarf Rugby Club,Irish Rugby Football Union,53.2651078,-6.3609563,"Saint Anne'S, Bohernabreena Ed, Dublin 24, South Dublin, County Dublin, Leinster, D24 P892, Ireland",Soccer,nan
Brickfields,Benbulben Utd F.C (New Team),Leinster Football League,53.3320387,-6.3033135,"Keeper Road, Brickfields Road, Keeper Road, Dolphinsbarn, Crumlin B Ed, Dublin 12, Dublin, County Dublin, Leinster, D12 Yk06, Ireland",Soccer,nan
Brickfields,Inchicore Athletic F.C.,Leinster Football League,53.3320387,-6.3033135,"Keeper Road, Brickfields Road, Keeper Road, Dolphinsbarn, Crumlin B Ed, Dublin 12, Dublin, County Dublin, Leinster, D12 Yk06, Ireland",Soccer,nan
Dartry,Doddervale United,Leinster Football League,53.3099564,-6.2631069,"Dartry, Rathfarnham Ed, Dublin 6, Dublin, County Dublin, Leinster, D06 Cf67, Ireland",Soccer,nan
Farnham,Finglas Athletic,Leinster Football League,53.3840936,-6.3003502,"Farnham Drive, Finglas East, Finglas South B Ed, Dublin 11, Dublin, County Dublin, Leinster, D11 K254, Ireland",Soccer,nan
John Paul,Cabra Celtic,Leinster Football League,53.3631256,-6.2361861,"John Paul Photography Ltd, 9, Fairview, Ballybough, Clontarf West D Ed, Dublin 3, Dublin, County Dublin, Leinster, D03 Ya26, Ireland",Soccer,nan
Le Fanu,Colepark Utd,Leinster Football League,53.3358185,-6.3541441,"Le Fanu Bridge, Ballyfermot Lower, Kylemore Ed, Dublin 10, Dublin, County Dublin, Leinster, Dublin 10, Ireland",Soccer,nan
Ringsend,Hoganvilla F.C,Leinster Football League,53.341944,-6.226389,"Ringsend, Pembroke East A Ed, Dublin 4, Dublin, County Dublin, Leinster, Ireland",Soccer,nan
Stannaway,Galty Celtic,Leinster Football League,53.32068665,-6.30068917285273,"Stannaway, Kimmage B Ed, Dublin 12, Dublin, County Dublin, Leinster, Ireland",Soccer,nan
Stannaway,Yellowstone Celtic,Leinster Football League,53.32068665,-6.30068917285273,"Stannaway, Kimmage B Ed, Dublin 12, Dublin, County Dublin, Leinster, Ireland",Soccer,nan
Stannaway,Harolds Cross Y.C,Leinster Football League,53.32068665,-6.30068917285273,"Stannaway, Kimmage B Ed, Dublin 12, Dublin, County Dublin, Leinster, Ireland",Soccer,nan
Walkinstown,Yellowstone Celtic,Leinster Football League,53.3216133,-6.3301177,"Walkinstown, Walkinstown B Ed, Dublin 12, Dublin, County Dublin, Leinster, Ireland",Soccer,nan
Dolphin,Rialto F.C,Leinster Football League.Amateur Football League,54.85697885,-6.26985945467716,"Dolphin, 116, Larne Road, Ballykeel, Ballymena, County Antrim, Northern Ireland, Bt42 3Ax, Uk",Soccer,nan
Beechill,Beechill United,Leinster Senior League,53.3175917,-6.2330531,"Beechill Ave (Beaver Row), Beech Hill Estate, Smotscourt, Pembroke East D Ed, Dublin 4, Dublin, County Dublin, Leinster, D04 Pv32, Ireland",Soccer,nan
Brickfields,Queens Park F.C.,Leinster Senior League,53.3320387,-6.3033135,"Keeper Road, Brickfields Road, Keeper Road, Dolphinsbarn, Crumlin B Ed, Dublin 12, Dublin, County Dublin, Leinster, D12 Yk06, Ireland",Soccer,nan
Brickfields,Mourne Celtic Seniors,Leinster Senior League,53.3320387,-6.3033135,"Keeper Road, Brickfields Road, Keeper Road, Dolphinsbarn, Crumlin B Ed, Dublin 12, Dublin, County Dublin, Leinster, D12 Yk06, Ireland",Soccer,nan
Brickfields,Black Forge,Leinster Senior League,53.3320387,-6.3033135,"Keeper Road, Brickfields Road, Keeper Road, Dolphinsbarn, Crumlin B Ed, Dublin 12, Dublin, County Dublin, Leinster, D12 Yk06, Ireland",Soccer,nan
Bunting Road,W.S.A.F.,Leinster Senior League,53.3201888,-6.3260332,"Bunting Road, Walkinstown, Walkinstown B Ed, Dublin 12, Dublin, County Dublin, Leinster, D12 Xf88, Ireland",Soccer,nan
Bushy,St. Vincent'S Hospital Fc,Leinster Senior League,53.3021198,-6.29144609073588,"Bushy Park, Terenure, Terenure D Ed, Dublin 6W, Dublin, County Dublin, Leinster, Ireland",Soccer,nan
Bushy,English In Dublin F.C,Leinster Senior League,53.3021198,-6.29144609073588,"Bushy Park, Terenure, Terenure D Ed, Dublin 6W, Dublin, County Dublin, Leinster, Ireland",Soccer,nan
Bushy,Rathfarnham Punters,Leinster Senior League,53.3021198,-6.29144609073588,"Bushy Park, Terenure, Terenure D Ed, Dublin 6W, Dublin, County Dublin, Leinster, Ireland",Soccer,nan
Dartry,Orwell F.C.,Leinster Senior League,53.3099564,-6.2631069,"Dartry, Rathfarnham Ed, Dublin 6, Dublin, County Dublin, Leinster, D06 Cf67, Ireland",Soccer,nan
Herbert,English In Dublin F.C,Leinster Senior League,53.3276869,-6.23656997033567,"Herbert Park, Forty Acres, Pembroke West B Ed, Dublin 4, Dublin, County Dublin, Leinster, Ireland",Soccer,nan
Irishtown,St. Patricks C.Y.F.C.,Leinster Senior League,53.5324945,-6.22615702070604,"Irishtown, Lusk Ed, Ballyboughal, Fingal, County Dublin, Leinster, Ireland",Soccer,nan
St. Annes,Pioneers F.C.,Leinster Senior League,53.2651078,-6.3609563,"Saint Anne'S, Bohernabreena Ed, Dublin 24, South Dublin, County Dublin, Leinster, D24 P892, Ireland",Soccer,nan
St. Annes,St. Judes F.C.,Leinster Senior League,53.2651078,-6.3609563,"Saint Anne'S, Bohernabreena Ed, Dublin 24, South Dublin, County Dublin, Leinster, D24 P892, Ireland",Soccer,nan
Stannaway,Iveagh Celtic,Leinster Senior League,53.32068665,-6.30068917285273,"Stannaway, Kimmage B Ed, Dublin 12, Dublin, County Dublin, Leinster, Ireland",Soccer,nan
Stannaway,Meath Rangers F.C.,Leinster Senior League,53.32068665,-6.30068917285273,"Stannaway, Kimmage B Ed, Dublin 12, Dublin, County Dublin, Leinster, Ireland",Soccer,nan
Stannaway,Donore F.C,Leinster Senior League,53.32068665,-6.30068917285273,"Stannaway, Kimmage B Ed, Dublin 12, Dublin, County Dublin, Leinster, Ireland",Soccer,nan
Walkinstown,Walkinstown United,Leinster Senior League,53.3216133,-6.3301177,"Walkinstown, Walkinstown B Ed, Dublin 12, Dublin, County Dublin, Leinster, Ireland",Soccer,nan
Dundaniel,Kilmore Ladies F.C.,North Dublin School Girls League,53.394585,-6.225759,"Dundaniel Road, Kilmore Big, Kilmore B Ed, Dublin 5, Dublin, County Dublin, Leinster, D05N7F2, Ireland",Soccer,nan
Oscar Traynor,Kilmore Ladies F.C.,North Dublin School Girls League,53.3977132,-6.2225083,"Oscar Traynor Road, Kilmore Big, Kilmore B Ed, Dublin 17, Dublin, County Dublin, Leinster, D17 A076, Ireland",Soccer,nan
Albert College,Drumcondra F.C (Schoolboys),Noth Dublin Schoolboys League,53.3854709,-6.26080914918107,"Albert College (A), Albert College Avenue, Albert College Estate, Wad, Whitehall A Ed, Dublin 9, Dublin, County Dublin, Leinster, D09 Fw22, Ireland",Soccer,nan
Ardmore,Artane/Beaumont Juveniles,Noth Dublin Schoolboys League,54.50692755,-6.42590484391681,"Ardmore, Armagh, County Armagh, Northern Ireland, Uk",Soccer,nan
Ashington,Navan Road United,Noth Dublin Schoolboys League,53.3735101,-6.310396,"Ashington Park, Cabragh (Castleknock), Ashtown A Ed, Dublin 7, Dublin, County Dublin, Leinster, D07 Xcx5, Ireland",Soccer,nan
Belcamp,St. Columbans S/Boys,Noth Dublin Schoolboys League,53.4068274,-6.19692618719913,"Belcamp, Priorswood B Ed, Dublin 17, Dublin, County Dublin, Leinster, 17, Ireland",Soccer,nan
Belcamp,Priorswood School Boys,Noth Dublin Schoolboys League,53.4068274,-6.19692618719913,"Belcamp, Priorswood B Ed, Dublin 17, Dublin, County Dublin, Leinster, 17, Ireland",Soccer,nan
Belcamp,St. Francis Moatview,Noth Dublin Schoolboys League,53.4068274,-6.19692618719913,"Belcamp, Priorswood B Ed, Dublin 17, Dublin, County Dublin, Leinster, 17, Ireland",Soccer,nan
Clonturk,Drumcondra F.C (Schoolboys),Noth Dublin Schoolboys League,53.38171705,-6.24575159383744,"Clonturk, Whitehall A Ed, Dublin 9, Dublin, County Dublin, Leinster, D09 C7F8, Ireland",Soccer,nan
Darndale,Darndale F.C.,Noth Dublin Schoolboys League,53.4009603,-6.19403177988914,"Darndale, Priorswood C Ed, Dublin 17, Dublin, County Dublin, Leinster, Ireland",Soccer,nan
Fairview,St. Josephs Eastwall Y.C.F.C.,Noth Dublin Schoolboys League,53.3628457,-6.2366557,"Fairview, Clontarf West D Ed, Dublin 3, Dublin, County Dublin, Leinster, D03 Dc92, Ireland",Soccer,nan
Fairview,Marino A.F.C.,Noth Dublin Schoolboys League,53.3628457,-6.2366557,"Fairview, Clontarf West D Ed, Dublin 3, Dublin, County Dublin, Leinster, D03 Dc92, Ireland",Soccer,nan
Glin Road,St. Columbans S/Boys,Noth Dublin Schoolboys League,53.4020707,-6.2053385,"Glin Road, Fairfield, Priorswood E Ed, Dublin 17, Dublin, County Dublin, Leinster, 17, Ireland",Soccer,nan
Glin Road,Priorswood School Boys,Noth Dublin Schoolboys League,53.4020707,-6.2053385,"Glin Road, Fairfield, Priorswood E Ed, Dublin 17, Dublin, County Dublin, Leinster, 17, Ireland",Soccer,nan
John Paul,Navan Road United,Noth Dublin Schoolboys League,53.3631256,-6.2361861,"John Paul Photography Ltd, 9, Fairview, Ballybough, Clontarf West D Ed, Dublin 3, Dublin, County Dublin, Leinster, D03 Ya26, Ireland",Soccer,nan
Marino,Marino A.F.C.,Noth Dublin Schoolboys League,53.37047995,-6.23149046829368,"Marino, Grace Park Ed, Dublin 9, Dublin, County Dublin, Leinster, Ireland",Soccer,nan
Mellowes,Northway Mellowes F.C,Noth Dublin Schoolboys League,53.3898277,-6.3068943,"Mellowes Road, Cardiffscastle, Finglas North B Ed, Dublin 11, Dublin, County Dublin, Leinster, D11 K254, Ireland",Soccer,nan
Northway,Northway Mellowes F.C,Noth Dublin Schoolboys League,54.4230284,-6.4481701,"Northway, Corcrain, Portadown, County Armagh, Northern Ireland, Bt62 3Lq, Uk",Soccer,nan
Oscar Traynor,Woodlawn F.C.(Juv),Noth Dublin Schoolboys League,53.3977132,-6.2225083,"Oscar Traynor Road, Kilmore Big, Kilmore B Ed, Dublin 17, Dublin, County Dublin, Leinster, D17 A076, Ireland",Soccer,nan
Rockfield,Artane/Beaumont Juveniles,Noth Dublin Schoolboys League,53.29428765,-6.17281714012544,"Rockfield, Blackrock-Templehill Ed, Blackrock, Dún Laoghaire-Rathdown, County Dublin, Leinster, Ireland",Soccer,nan
St. Annes,Marino A.F.C.,Noth Dublin Schoolboys League,53.2651078,-6.3609563,"Saint Anne'S, Bohernabreena Ed, Dublin 24, South Dublin, County Dublin, Leinster, D24 P892, Ireland",Soccer,nan
Poppintree,Willows F.C.,"Noth Dublin Schoolboys League,Amateur Football League",53.40234405,-6.28712461437514,"Poppintree (Finglas), Ballymun A Ed, Dublin 11, Dublin, County Dublin, Leinster, Ireland",Soccer,nan
Greendale,Kilbarrack United F.C.,"Noth Dublin Schoolboys League,Athletic Union League League",53.38606505,-6.15047013055555,"Raheny-Greendale Ed, Dublin, County Dublin, Leinster, Ireland",Soccer,nan
Roseglen,Kilbarrack United F.C.,"Noth Dublin Schoolboys League,Athletic Union League League",53.3854698,-6.1603965,"Roseglen Avenue, Kilbarrack Upper, Raheny-Foxfield Ed, Dublin 5, Dublin, County Dublin, Leinster, Dublin 13, Ireland",Soccer,nan
Edenmore,Grange Woodbine F.C.,"Noth Dublin Schoolboys League,Athletic Union League League",53.386264,-6.18738019366035,"Edenmore, Edenmore Ed, Dublin 5, Dublin, County Dublin, Leinster, Ireland",Soccer,nan
Woodbine Ave,Grange Woodbine F.C.,"Noth Dublin Schoolboys League,Athletic Union League League",53.309439,-6.2107616,"Woodbine Avenue, Trimleston Or Owenstown, Blackrock-Glenomena Ed, Goatstown, Dún Laoghaire-Rathdown, County Dublin, Leinster, D04 Ae48, Ireland",Soccer,nan
St. Annes,Clontarf F.C.,"North Dublin Schoolboys League,Dublin District Schoolboys League",53.2651078,-6.3609563,"Saint Anne'S, Bohernabreena Ed, Dublin 24, South Dublin, County Dublin, Leinster, D24 P892, Ireland",Soccer,nan
Fr. Collins,Mid Sutton F.C,"North Dublin Schoolboys League,Leinster Senior League",0.0,0.0,0,Soccer,nan
St. Annes,Mid Sutton F.C,"North Dublin Schoolboys League,Leinster Senior League",53.2651078,-6.3609563,"Saint Anne'S, Bohernabreena Ed, Dublin 24, South Dublin, County Dublin, Leinster, D24 P892, Ireland",Soccer,nan
Balcurris Park,Unidare Rfc,Rugby,53.40424065,-6.27263549858681,"Balcurris, Ballymun B Ed, Dublin 11, Dublin, County Dublin, Leinster, Ireland",Soccer,nan
Dartry,Beechwood F.C,South Dublin Football League,53.3099564,-6.2631069,"Dartry, Rathfarnham Ed, Dublin 6, Dublin, County Dublin, Leinster, D06 Cf67, Ireland",Soccer,nan
Herbert,Beechwood F.C,South Dublin Football League,53.3276869,-6.23656997033567,"Herbert Park, Forty Acres, Pembroke West B Ed, Dublin 4, Dublin, County Dublin, Leinster, Ireland",Soccer,nan
Herbert,Belmont F.C,South Dublin Football League,53.3276869,-6.23656997033567,"Herbert Park, Forty Acres, Pembroke West B Ed, Dublin 4, Dublin, County Dublin, Leinster, Ireland",Soccer,nan
Le Fanu,Afc Belgrave,South Dublin Football League,53.3358185,-6.3541441,"Le Fanu Bridge, Ballyfermot Lower, Kylemore Ed, Dublin 10, Dublin, County Dublin, Leinster, Dublin 10, Ireland",Soccer,nan
Stannaway,James Utd.,South Dublin Football League,53.32068665,-6.30068917285273,"Stannaway, Kimmage B Ed, Dublin 12, Dublin, County Dublin, Leinster, Ireland",Soccer,nan
Cherry Orchard,Orchard Celtic,"South Dublin Football League,Athletic Union League",53.32998585,-6.276184427657,"Cherry Orchard, Merchants Quay E Ed, Dublin 8, Dublin, County Dublin, Leinster, Ireland",Soccer,nan
Beechill,Donnybrook F.C.,South Dublin Football League,53.3175917,-6.2330531,"Beechill Ave (Beaver Row), Beech Hill Estate, Smotscourt, Pembroke East D Ed, Dublin 4, Dublin, County Dublin, Leinster, D04 Pv32, Ireland",Soccer,nan
Herbert,Donnybrook F.C.,South Dublin Football League,53.3276869,-6.23656997033567,"Herbert Park, Forty Acres, Pembroke West B Ed, Dublin 4, Dublin, County Dublin, Leinster, Ireland",Soccer,nan
Albert College,Glasnaion F.C,United Churches Football League,53.3854709,-6.26080914918107,"Albert College (A), Albert College Avenue, Albert College Estate, Wad, Whitehall A Ed, Dublin 9, Dublin, County Dublin, Leinster, D09 Fw22, Ireland",Soccer,nan
Brickfields,K.C.R Utd.,United Churches Football League,53.3320387,-6.3033135,"Keeper Road, Brickfields Road, Keeper Road, Dolphinsbarn, Crumlin B Ed, Dublin 12, Dublin, County Dublin, Leinster, D12 Yk06, Ireland",Soccer,nan
Brickfields,Booterstown United F.C.,United Churches Football League,53.3320387,-6.3033135,"Keeper Road, Brickfields Road, Keeper Road, Dolphinsbarn, Crumlin B Ed, Dublin 12, Dublin, County Dublin, Leinster, D12 Yk06, Ireland",Soccer,nan
Brickfields,Riverside United,United Churches Football League,53.3320387,-6.3033135,"Keeper Road, Brickfields Road, Keeper Road, Dolphinsbarn, Crumlin B Ed, Dublin 12, Dublin, County Dublin, Leinster, D12 Yk06, Ireland",Soccer,nan
Brickfields,Lower Crumlin F.C.,United Churches Football League,53.3320387,-6.3033135,"Keeper Road, Brickfields Road, Keeper Road, Dolphinsbarn, Crumlin B Ed, Dublin 12, Dublin, County Dublin, Leinster, D12 Yk06, Ireland",Soccer,nan
Bushy,Terenure College Afc,United Churches Football League,53.3021198,-6.29144609073588,"Bushy Park, Terenure, Terenure D Ed, Dublin 6W, Dublin, County Dublin, Leinster, Ireland",Soccer,nan
Bushy,Sandford Athletic,United Churches Football League,53.3021198,-6.29144609073588,"Bushy Park, Terenure, Terenure D Ed, Dublin 6W, Dublin, County Dublin, Leinster, Ireland",Soccer,nan
Farnham,Francis A.F.C.,United Churches Football League,53.3840936,-6.3003502,"Farnham Drive, Finglas East, Finglas South B Ed, Dublin 11, Dublin, County Dublin, Leinster, D11 K254, Ireland",Soccer,nan
Fr. Collins,Schalke Rovers,United Churches Football League,0.0,0.0,0,Soccer,nan
Herbert,Harding F.C.,United Churches Football League,53.3276869,-6.23656997033567,"Herbert Park, Forty Acres, Pembroke West B Ed, Dublin 4, Dublin, County Dublin, Leinster, Ireland",Soccer,nan
Johnstown,Glasnaion F.C,United Churches Football League,53.54157665,-6.22770962799422,"Johnstown, Lusk Ed, Ballyboughal, Fingal, County Dublin, Leinster, Ireland",Soccer,nan
St. Annes,Strand United A.F.C.,United Churches Football League,53.2651078,-6.3609563,"Saint Anne'S, Bohernabreena Ed, Dublin 24, South Dublin, County Dublin, Leinster, D24 P892, Ireland",Soccer,nan
St. Annes,Dollymount Fc Seniors,United Churches Football League,53.2651078,-6.3609563,"Saint Anne'S, Bohernabreena Ed, Dublin 24, South Dublin, County Dublin, Leinster, D24 P892, Ireland",Soccer,nan
St. Annes,Schalke Rovers,United Churches Football League,53.2651078,-6.3609563,"Saint Anne'S, Bohernabreena Ed, Dublin 24, South Dublin, County Dublin, Leinster, D24 P892, Ireland",Soccer,nan
St. Annes,St Annes United,United Churches Football League,53.2651078,-6.3609563,"Saint Anne'S, Bohernabreena Ed, Dublin 24, South Dublin, County Dublin, Leinster, D24 P892, Ireland",Soccer,nan
Brickfields,Central F.C,United Churches Football League,53.3320387,-6.3033135,"Keeper Road, Brickfields Road, Keeper Road, Dolphinsbarn, Crumlin B Ed, Dublin 12, Dublin, County Dublin, Leinster, D12 Yk06, Ireland",Soccer,nan
Brickfields,Rialto Madrid,United Churches Football League,53.3320387,-6.3033135,"Keeper Road, Brickfields Road, Keeper Road, Dolphinsbarn, Crumlin B Ed, Dublin 12, Dublin, County Dublin, Leinster, D12 Yk06, Ireland",Soccer,nan
Brickfields,Afc Justice,United Churches Football League,53.3320387,-6.3033135,"Keeper Road, Brickfields Road, Keeper Road, Dolphinsbarn, Crumlin B Ed, Dublin 12, Dublin, County Dublin, Leinster, D12 Yk06, Ireland",Soccer,nan
Donaghmede,Seaview Celtic,United Churches Football League,53.3948612,-6.1635775,"Donaghmede, Grange C Ed, Dublin 13, Dublin, County Dublin, Leinster, Dublin 13, Ireland",Soccer,nan
Farnham,Amber Celtic,United Churches Football League,53.3840936,-6.3003502,"Farnham Drive, Finglas East, Finglas South B Ed, Dublin 11, Dublin, County Dublin, Leinster, D11 K254, Ireland",Soccer,nan
Fr. Collins,Seaview Celtic,United Churches Football League,0.0,0.0,0,Soccer,nan
Le Fanu,Chapelizod F.C.,United Churches Football League,53.3358185,-6.3541441,"Le Fanu Bridge, Ballyfermot Lower, Kylemore Ed, Dublin 10, Dublin, County Dublin, Leinster, Dublin 10, Ireland",Soccer,nan
St. Annes,San Marino,United Churches Football League,53.2651078,-6.3609563,"Saint Anne'S, Bohernabreena Ed, Dublin 24, South Dublin, County Dublin, Leinster, D24 P892, Ireland",Soccer,nan
St. Annes,Conwell Rovers,United Churches Football League,53.2651078,-6.3609563,"Saint Anne'S, Bohernabreena Ed, Dublin 24, South Dublin, County Dublin, Leinster, D24 P892, Ireland",Soccer,nan
St. Annes,Clontarf Athletic,United Churches Football League,53.2651078,-6.3609563,"Saint Anne'S, Bohernabreena Ed, Dublin 24, South Dublin, County Dublin, Leinster, D24 P892, Ireland",Soccer,nan
St. Annes,White Star Rovers,United Churches Football League,53.2651078,-6.3609563,"Saint Anne'S, Bohernabreena Ed, Dublin 24, South Dublin, County Dublin, Leinster, D24 P892, Ireland",Soccer,nan
Stannaway,Shielton Athletic F.C,United Churches Football League,53.32068665,-6.30068917285273,"Stannaway, Kimmage B Ed, Dublin 12, Dublin, County Dublin, Leinster, Ireland",Soccer,nan
Walkinstown,Castle Celtic,United Churches Football League,53.3216133,-6.3301177,"Walkinstown, Walkinstown B Ed, Dublin 12, Dublin, County Dublin, Leinster, Ireland",Soccer,nan
St. Annes,F.C Ailesbury Utd.,United Churches Football League/Amateur Football League,53.2651078,-6.3609563,"Saint Anne'S, Bohernabreena Ed, Dublin 24, South Dublin, County Dublin, Leinster, D24 P892, Ireland",Soccer,nan
Belcamp,Sporting Metro F.C.,United Churches Football League,53.4068274,-6.19692618719913,"Belcamp, Priorswood B Ed, Dublin 17, Dublin, County Dublin, Leinster, 17, Ireland",Soccer,nan
St. Annes,Clontarf F.C (Seniors),United Churches Football League,53.2651078,-6.3609563,"Saint Anne'S, Bohernabreena Ed, Dublin 24, South Dublin, County Dublin, Leinster, D24 P892, Ireland",Soccer,nan
Kilbogget Park,nan,nan,53.25724222,-6.14066541,"Running track, Shanganagh Vale, Loughlinstown, Cabinteely-Kilbogget ED, Killiney, Dún Laoghaire-Rathdown, County Dublin, Leinster, A96 CD72, Ireland",1,Snr
Kilbogget Park,nan,nan,53.25761448,-6.13988221,"Seapoint Rugby Club, Churchview Road, Kilbogget, Ballybrack ED, Killiney, Dún Laoghaire-Rathdown, County Dublin, Leinster, A96 CD72, Ireland",2,SSG
Kilbogget Park,nan,nan,53.25784232,-6.1392653,"Seapoint Rugby Club, Churchview Road, Kilbogget, Ballybrack ED, Killiney, Dún Laoghaire-Rathdown, County Dublin, Leinster, A96 CD72, Ireland",3,SSG
Kilbogget Park,nan,nan,53.25709781,-6.13909364,"63, Coolevin, Gleann na Sailí, Loughlinstown, Cabinteely-Kilbogget ED, Killiney, Dún Laoghaire-Rathdown, County Dublin, Leinster, A96 CD72, Ireland",4,SSG
Kilbogget Park,nan,nan,53.256674200000006,-6.14013433,"Running track, Shanganagh Vale, Loughlinstown, Cabinteely-Kilbogget ED, Killiney, Dún Laoghaire-Rathdown, County Dublin, Leinster, A96 CD72, Ireland",5,SGG
Kilbogget Park,nan,nan,53.25659718,-6.1381495,"66, Coolevin, Gleann na Sailí, Loughlinstown, Cabinteely-Kilbogget ED, Killiney, Dún Laoghaire-Rathdown, County Dublin, Leinster, A96 CD72, Ireland",6,Snr
Kilbogget Park,nan,nan,53.25623775,-6.13876104,"57, Coolevin, Gleann na Sailí, Loughlinstown, Cabinteely-Kilbogget ED, Killiney, Dún Laoghaire-Rathdown, County Dublin, Leinster, A96 CD72, Ireland",7,Snr
Kilbogget Park,nan,nan,53.25605162,-6.13971591,"45, Coolevin, Gleann na Sailí, Loughlinstown, Cabinteely-Kilbogget ED, Killiney, Dún Laoghaire-Rathdown, County Dublin, Leinster, A96 CD72, Ireland",8,Snr
Kilbogget Park,nan,nan,53.25566651,-6.14180535,"Running track, Shanganagh Vale, Loughlinstown, Cabinteely-Kilbogget ED, Killiney, Dún Laoghaire-Rathdown, County Dublin, Leinster, A96 CD72, Ireland",9,Snr
Kilbogget Park,nan,nan,53.25857719,-6.14245445,"114, Shrewsbury Lawn, Kilbogget, Cabinteely-Kilbogget ED, Cornelscourt, Dún Laoghaire-Rathdown, County Dublin, Leinster, D18 CX24, Ireland",10,SSG
Kilbogget Park,nan,nan,53.25967787,-6.14394039,"62A, Shrewsbury Lawn, Kilbogget, Cabinteely-Kilbogget ED, Cornelscourt, Dún Laoghaire-Rathdown, County Dublin, Leinster, D18 CX24, Ireland",11,11
Kilbogget Park,nan,nan,53.26050256,-6.14033014,"Granville Road, Kilbogget, Cabinteely-Granitefield ED, Cornelscourt, Dún Laoghaire-Rathdown, County Dublin, Leinster, A96 F2A8, Ireland",A,SNR
Kilbogget Park,nan,nan,53.25988324,-6.1420092,"Doonanore Park, Kilbogget, Cabinteely-Granitefield ED, Cornelscourt, Dún Laoghaire-Rathdown, County Dublin, Leinster, A96 CD72, Ireland",B,JNR
Kilbogget Park,nan,nan,53.258400699999996,-6.13846868,"Churchview Road, Kilbogget, Ballybrack ED, Killiney, Dún Laoghaire-Rathdown, County Dublin, Leinster, A96 CD72, Ireland",All weather,Mini
Kilbogget Park,nan,nan,53.26029719,-6.14451438,"36, Shrewsbury Lawn, Kilbogget, Cabinteely-Kilbogget ED, Cornelscourt, Dún Laoghaire-Rathdown, County Dublin, Leinster, D18 CX24, Ireland",All weather,Full
Kilbogget Park,nan,nan,53.25437638,-6.13893002,"41, Coolevin, Loughlinstown, Cabinteely-Kilbogget ED, Killiney, Dún Laoghaire-Rathdown, County Dublin, Leinster, A96 CD72, Ireland",12,SSG
Kilbogget Park,nan,nan,53.25368637,-6.13821656,"27, Coolevin, Loughlinstown, Cabinteely-Kilbogget ED, Killiney, Dún Laoghaire-Rathdown, County Dublin, Leinster, A96 CD72, Ireland",13,11
Kilbogget Park,nan,nan,53.25181525,-6.13465995,"75A, Wyattville Park, Wyattville, Loughlinstown, Cabinteely-Kilbogget ED, Shankill, Dún Laoghaire-Rathdown, County Dublin, Leinster, A96 CD72, Ireland",14,SSG
Kilbogget Park,nan,nan,53.25253097,-6.13614053,"1, Coolevin, Loughlinstown, Cabinteely-Kilbogget ED, Killiney, Dún Laoghaire-Rathdown, County Dublin, Leinster, A96 CD72, Ireland",All weather,Mini
Kilbogget Park,nan,nan,53.25279094,-6.13725632,"12, Coolevin, Loughlinstown, Cabinteely-Kilbogget ED, Killiney, Dún Laoghaire-Rathdown, County Dublin, Leinster, A96 CD72, Ireland",All weather,Full
Shanganagh Park,nan,nan,53.22484031,-6.11720145,"Shankill F.C. Clubhouse, Shanganagh Cemetery, Shanganagh, Shankill-Shanganagh ED, Dublin 18, Dún Laoghaire-Rathdown, County Dublin, Leinster, A98 TY45, Ireland",1,Snr
Shanganagh Park,nan,nan,53.22447419,-6.11805439,"Shankill F.C. Clubhouse, Shanganagh Cemetery, Shanganagh, Shankill-Shanganagh ED, Dublin 18, Dún Laoghaire-Rathdown, County Dublin, Leinster, A98 TY45, Ireland",2,Snr
Shanganagh Park,nan,nan,53.22417551,-6.11886978,"Shankill F.C. Clubhouse, Shanganagh Cemetery, Shanganagh, Shankill-Shanganagh ED, Dublin 18, Dún Laoghaire-Rathdown, County Dublin, Leinster, A98 TY45, Ireland",3,Snr
Shanganagh Park,nan,nan,53.22292939,-6.12123549,"#4126 Bray Road, Shanganagh Cemetery, Dublin Road, Aske, Shankill-Shanganagh ED, Dublin 18, Dún Laoghaire-Rathdown, County Dublin, Leinster, A98 TY45, Ireland",GAA A,Snr
Shanganagh Park,nan,nan,53.22336618,-6.11990511,"Shanganagh Cemetery, Cork Little, Shankill-Shanganagh ED, Dublin 18, Dún Laoghaire-Rathdown, County Dublin, Leinster, A98 TY45, Ireland",GAA B,Snr
Shanganagh Park,nan,nan,53.22319917,-6.11767352,"Shankill F.C. Clubhouse, Shanganagh Cemetery, Shanganagh, Shankill-Shanganagh ED, Dublin 18, Dún Laoghaire-Rathdown, County Dublin, Leinster, A98 TY45, Ireland",All weather,Mini
Shanganagh Cliffs,nan,nan,53.24146007,-6.11370116,"90, Shanganagh Cliffs, Shanganagh, Shankill-Rathsallagh ED, Dublin 18, Dún Laoghaire-Rathdown, County Dublin, Leinster, A96 X997, Ireland",Soccer,Snr
Shanganagh Cliffs,nan,nan,53.24048412,-6.11324519,"Shanganagh Cliffs, Shanganagh, Shankill-Rathsallagh ED, Dublin 18, Dún Laoghaire-Rathdown, County Dublin, Leinster, A96 X997, Ireland",GAA,Snr
Shanganagh Castle,nan,nan,53.24048412,-6.11324519,"Shanganagh Cliffs, Shanganagh, Shankill-Rathsallagh ED, Dublin 18, Dún Laoghaire-Rathdown, County Dublin, Leinster, A96 X997, Ireland",Temporary pitch,Snr
Rockfield Park(NTPL),nan,nan,53.29586578,-6.17649704,"9, Brookfield Court, Newtown Blackrock, Blackrock-Templehill ED, Blackrock, Dún Laoghaire-Rathdown, County Dublin, Leinster, A94 E4X2, Ireland",1,Snr
Rockfield Park(NTPL),nan,nan,53.29517323,-6.17667943,"Avondale Court, Rockfield, Blackrock-Templehill ED, Blackrock, Dún Laoghaire-Rathdown, County Dublin, Leinster, A94 E4X2, Ireland",2,Snr
Rockfield Park(NTPL),nan,nan,53.29586258,-6.17427617,"Avondale Court, Rockfield, Blackrock-Templehill ED, Blackrock, Dún Laoghaire-Rathdown, County Dublin, Leinster, A94 E4X2, Ireland",Rugby,Snr
Dunedin (jun),nan,nan,53.28703173,-6.15227669,"Monkstown skatepark, Dunedin Terrace, Mountashton, Dun Laoghaire-Mount Town ED, Dún Laoghaire, Dún Laoghaire-Rathdown, County Dublin, Leinster, A96 TW60, Ireland",1,SSG
Soldiers & Sailors,nan,nan,53.28572971,-6.1583358,"Lanesville, Lansville, Dun Laoghaire-Monkstown Farm ED, Cornelscourt, Dún Laoghaire-Rathdown, County Dublin, Leinster, A96 TW60, Ireland",1,Snr
Meadowvale,nan,nan,53.27550463,-6.16045743,"Enterprise Rent-a-Car Overflow Parking, Clonkeen Crescent, Kill of the Grange, Cabinteely-Pottery ED, Cornelscourt, Dún Laoghaire-Rathdown, County Dublin, Leinster, A96 KH79, Ireland",1,Snr
Meadowvale,nan,nan,53.27467061,-6.15985125,"38, Meadow Vale, Deansgrange, Cabinteely-Pottery ED, Cornelscourt, Dún Laoghaire-Rathdown, County Dublin, Leinster, A94 P206, Ireland",2,Snr
Meadowvale,nan,nan,53.27402744,-6.15923837,"39, Meadow Vale, Deansgrange, Cabinteely-Pottery ED, Cornelscourt, Dún Laoghaire-Rathdown, County Dublin, Leinster, A94 P206, Ireland",3,Snr
Meadowvale,nan,nan,53.27320461,-6.15801662,"Meadow Vale Tennis Club, Meadow Vale, Deansgrange, Cabinteely-Pottery ED, Cornelscourt, Dún Laoghaire-Rathdown, County Dublin, Leinster, A94 P206, Ireland",GAA,Snr
Holly Park,nan,nan,53.28258515,-6.17212906,"Dean's Grange Cemetery, Deansgrange Road, Deansgrange, Blackrock-Stradbrook ED, Cornelscourt, Dún Laoghaire-Rathdown, County Dublin, Leinster, A96 KH79, Ireland",1,Snr
Holly Park,nan,nan,53.28188437,-6.17125735,"Dean's Grange Cemetery, Deansgrange Road, Deansgrange, Blackrock-Stradbrook ED, Cornelscourt, Dún Laoghaire-Rathdown, County Dublin, Leinster, A96 KH79, Ireland",2,SSG
Sallynoggin,nan,nan,53.27554954,-6.14929408,"Sallynoggin Park, Woodpark, Cabinteely-Pottery ED, Cornelscourt, Dún Laoghaire-Rathdown, County Dublin, Leinster, A96 F2A8, Ireland",1,Snr
Sallynoggin,nan,nan,53.27349012,-6.14641875,"Rochestown Avenue, Woodpark, Dun Laoghaire-Sallynoggin South ED, Cornelscourt, Dún Laoghaire-Rathdown, County Dublin, Leinster, A96 F2A8, Ireland",2,Snr
Sallynoggin,nan,nan,53.27362806,-6.14487916,"Pearse Park, Thomastown, Dun Laoghaire-Sallynoggin South ED, Dún Laoghaire, Dún Laoghaire-Rathdown, County Dublin, Leinster, A96 AD99, Ireland",3,Snr
Sallynoggin,nan,nan,53.275533499999995,-6.14674062,"Sallynoggin Park, Woodpark, Dun Laoghaire Sallynoggin West ED, Dún Laoghaire, Dún Laoghaire-Rathdown, County Dublin, Leinster, A96 YK40, Ireland",4,Snr
Sallynoggin,nan,nan,53.27492082,-6.14471555,"Sallynoggin Road, Sallynoggin Park, Woodpark, Dun Laoghaire Sallynoggin West ED, Dún Laoghaire, Dún Laoghaire-Rathdown, County Dublin, Leinster, A96 AP64, Ireland",5,Snr
Sallynoggin,nan,nan,53.27306026,-6.14417374,"Pearse Park, Thomastown, Dun Laoghaire-Sallynoggin South ED, Dún Laoghaire, Dún Laoghaire-Rathdown, County Dublin, Leinster, A96 AD99, Ireland",6,SSG
Sallynoggin,nan,nan,53.27277154,-6.14383042,"Pearse Park, Thomastown, Dun Laoghaire-Sallynoggin South ED, Dún Laoghaire, Dún Laoghaire-Rathdown, County Dublin, Leinster, A96 AD99, Ireland",7,SSG
Sallynoggin,nan,nan,53.27254057,-6.14350855,"Pearse Park, Thomastown, Dun Laoghaire-Sallynoggin South ED, Dún Laoghaire, Dún Laoghaire-Rathdown, County Dublin, Leinster, A96 AD99, Ireland",8,SSG
Sallynoggin,nan,nan,53.27241225,-6.14477187,"Rochestown Avenue, Johnstown, Dun Laoghaire-Sallynoggin South ED, Cornelscourt, Dún Laoghaire-Rathdown, County Dublin, Leinster, A96 F2A8, Ireland",9,SSG
Sallynoggin,nan,nan,53.27416377,-6.144541200000001,"Pearse Park, Thomastown, Dun Laoghaire-Sallynoggin South ED, Dún Laoghaire, Dún Laoghaire-Rathdown, County Dublin, Leinster, A96 AD99, Ireland",All weather,mini
Hyde Park,nan,nan,53.28024221,-6.11062199,"Dalkey Township 1863-1899, Dalkey Avenue, Dalkey, Dalkey Upper ED, Dalkey, Dún Laoghaire-Rathdown, County Dublin, Leinster, SW17 7EG, Ireland",1,Snr
Hyde Park,nan,nan,53.28018127,-6.11247808,"Dalkey Township 1863-1899, Dalkey Avenue, Dalkey, Dalkey Upper ED, Dalkey, Dún Laoghaire-Rathdown, County Dublin, Leinster, SW17 7EG, Ireland",GAA,Snr
Hyde Park,nan,nan,53.28016844,-6.10963494,"Dalkey Township 1863-1899, Dalkey Avenue, Dalkey, Dalkey Upper ED, Dalkey, Dún Laoghaire-Rathdown, County Dublin, Leinster, SW17 7EG, Ireland",All weather,Mini
Hundson Road,nan,nan,53.28495362,-6.12187922,"Hudson Road, Glasthule, Dún Laoghaire-Sandycove ED, Dún Laoghaire, Dún Laoghaire-Rathdown, County Dublin, Leinster, SW17 7EG, Ireland",Location of future pitchs,Mini
Thomastown Road,nan,nan,53.27065745,-6.13670915,"Beechwood Lawn, Beechwood, Rochestown Domain, Dun Laoghaire-Sallynoggin South ED, Dún Laoghaire, Dún Laoghaire-Rathdown, County Dublin, Leinster, A96 AD99, Ireland",A,JNR
Thomastown Road,nan,nan,53.27142097,-6.13538414,"Sally Glen Road, Thomastown, Dun Laoghaire-Sallynoggin East ED, Dún Laoghaire, Dún Laoghaire-Rathdown, County Dublin, Leinster, A96 AD99, Ireland",B,Snr
Loughlinstown Park,nan,nan,53.244175899999995,-6.1253956,"Lambay Close, Ballybrack, Killiney South ED, Shankill, Dún Laoghaire-Rathdown, County Dublin, Leinster, A96 X997, Ireland",1,Snr
Loughlinstown Park,nan,nan,53.24354671,-6.12573892,"Loughlinstown Woods, Commons Road, Loughlinstown Commons, Killiney South ED, Dublin 18, Dún Laoghaire-Rathdown, County Dublin, Leinster, A96 X997, Ireland",A,Snr
Mount Albany,nan,nan,53.28626528,-6.17332131,"105, Mount Albany, Newtown Park, Blackrock-Newpark ED, Blackrock, Dún Laoghaire-Rathdown, County Dublin, Leinster, A94 E4X2, Ireland",A,Snr
Balbriggan Town Park,nan,nan,53.6049596246817,-6.18235291959051,"Glebe North Football Club, Market Green, Balbriggan, Balbriggan Urban ED, Balbriggan, Fingal, County Dublin, Leinster, K32 TW27, Ireland",All weather,nan
Balheary Reservoir,nan,nan,53.4727096370551,-6.22301521551813,"Swords celtic all weather pitch, Balheary Road, Newtown, Swords-Lissenhall ED, Swords, Fingal, County Dublin, Leinster, K67 KR77, Ireland",All weather,nan
Town Park,nan,nan,53.5771135903791,-6.11107205744599,"The Kybe, Rope Walk, Townparks, Skerries ED, Skerries, Fingal, County Dublin, Leinster, K34 Y567, Ireland",All weather,nan
St. Mologa's Park,nan,nan,53.6176672458903,-6.18936794084573,"St. Molaga's National School, Lambeecher, Tankardstown, Balbriggan Urban ED, Balbriggan, Fingal, County Dublin, Leinster, K32 WY80, Ireland",All weather,nan
Seagrange Park,nan,nan,53.3966674985382,-6.13535180348378,"Progressive Credit Union, Grange Road, Baldoyle, Baldoyle ED, Dublin 13, Fingal, County Dublin, Leinster, D13 NY11, Ireland",Basketball Court,nan
Grace O'Malley Park,nan,nan,53.3837670873571,-6.06993957211342,"Astroturf Football Park, Grace O'Malley Drive, Howth, Howth ED, Dublin 13, Fingal, County Dublin, Leinster, D13 VY50, Ireland",Basketball Court,nan
Broomfiled,nan,nan,53.4391582903147,-6.14467208848085,"Malahide, Malahide East ED, Malahide, Fingal, County Dublin, Leinster, K36 EW63, Ireland",GAA,nan
St. Catherine's Park,nan,nan,53.5381980171844,-6.09594133030661,"Saint Catherine's Green, Rush Demesne, Rush ED, Rush, Fingal, County Dublin, Leinster, K56 ED95, Ireland",GAA,nan
Malahide Demesne,nan,nan,53.4478177382721,-6.15784132699727,"Malahide Cricket Club, Dublin Road, Malahide Demesne, Malahide-West ED, Malahide, Fingal, County Dublin, Leinster, K36 FN27, Ireland",GAA,nan
Swords Manor,nan,nan,53.4591728031126,-6.249068963113,"Old Brackenstown Road, Brazil, Swords-Glasmore ED, Swords, Fingal, County Dublin, Leinster, K67 TOX3, Ireland",GAA,nan
Balheary Park,nan,nan,53.4671271045697,-6.22034510719597,"Castlegrange Avenue, Castlegrange, Newtown, Swords-Lissenhall ED, Swords, Fingal, County Dublin, Leinster, K67 X8Y2, Ireland",GAA,nan
Balheary Park,nan,nan,53.4660349552282,-6.21611968889385,"Balheary pitch 1, Lissenhall Road, Balheary Demesne, Swords Village ED, Swords, Fingal, County Dublin, Leinster, K67 X8Y2, Ireland",GAA,nan
Balheary Park,nan,nan,53.467348630642,-6.21538771007825,"Balheary pitch 2, Lissenhall Road, Balheary Demesne, Swords Village ED, Swords, Fingal, County Dublin, Leinster, K67 X8Y2, Ireland",GAA,nan
Hartstown Park,nan,nan,53.3959238366554,-6.41154517827057,"Blakestown, Blanchardstown-Blakestown ED, Clonsilla, Fingal, County Dublin, Leinster, D15 A3A8, Ireland",GAA,nan
Hartstown Park,nan,nan,53.3953231958123,-6.41292838835715,"Hartstown Community School, Hartstown Road, Hartstown, Blanchardstown-Blakestown ED, Clonsilla, Fingal, County Dublin, Leinster, D15 A3A8, Ireland",GAA,nan
Hunters Run/lLittlep,nan,nan,53.4063916944007,-6.42191076267738,"Clonee Bypass, Damastown, Blanchardstown-Tyrrelstown ED, Dublin 15, Fingal, County Dublin, Leinster, D15 X925, Ireland",GAA,nan
Skerries Town Park,nan,nan,53.5765290455722,-6.10916744201192,"The Kybe, Rope Walk, Townparks, Skerries ED, Skerries, Fingal, County Dublin, Leinster, K34 Y567, Ireland",GAA,nan
Ballist Pit,nan,nan,53.575296708008,-6.11740222324566,"Ballast pit, Barnageeragh Road, Townparks, Skerries ED, Skerries, Fingal, County Dublin, Leinster, K34 Y567, Ireland",GAA,nan
St. Mologa's Park,nan,nan,53.6181394762323,-6.18796362011618,"Bells Lane, Bremore, Balbriggan Rural ED, Balbriggan, Fingal, County Dublin, Leinster, K32 WY80, Ireland",GAA,nan
Seagrange Park,nan,nan,53.393783117558,-6.13607093712939,"Track Side Tennis Club, Seacliff Avenue, Kilbarrack Lower, Baldoyle ED, Dublin 13, Fingal, County Dublin, Leinster, D13 NY11, Ireland",GAA,nan
St. Mologa's Park,nan,nan,53.6192924034811,-6.18909240633233,"Bells Lane, Bremore, Balbriggan Rural ED, Balbriggan, Fingal, County Dublin, Leinster, K32 WY80, Ireland",Rugby,nan
St. Catherine's Park,nan,nan,53.3662024316463,-6.46774754045766,"St. Catherine's Park (Fingal), Lucan North ED, Fingal, County Dublin, Leinster, K78 EY17, Ireland",GAA,nan
St. Catherine's Park,nan,nan,53.5393376304072,-6.09450155109758,"Kenure estate storage room, Saint Catherine's Drive, Rush Demesne, Rush ED, Rush, Fingal, County Dublin, Leinster, K56 ED95, Ireland",Seven-a-side,nan
Seabury,nan,nan,53.4555471243316,-6.17781155116466,"Old Yellow Walls Road, Seabury, Yellow Walls, Malahide-West ED, Malahide, Fingal, County Dublin, Leinster, K36 FN27, Ireland",Seven-a-side,nan
Ward River Valley,nan,nan,53.4558136495821,-6.24957423891519,"Brookdale Green, Brookdale, Hilltown, Swords-Forrest ED, Swords, Fingal, County Dublin, Leinster, K67 TOX3, Ireland",Seven-a-side,nan
Balheary Park,nan,nan,53.4657614112316,-6.21839896828571,"Swords Skatepark, Balheary Road, Balheary Demesne, Swords-Lissenhall ED, Swords, Fingal, County Dublin, Leinster, K67 X8Y2, Ireland",Seven-a-side,nan
Balheary Reservoir,nan,nan,53.4723537763046,-6.2261531553405,"Swords Celtic pitch 1, Newtown Cottages, Newtown, Swords-Lissenhall ED, Swords, Fingal, County Dublin, Leinster, K67 KR77, Ireland",Seven-a-side,nan
Balheary Reservoir,nan,nan,53.4729479902679,-6.2256156970355,"Swords Celtic pitch 2, Balheary Road, Newtown, Swords-Lissenhall ED, Swords, Fingal, County Dublin, Leinster, K67 KR77, Ireland",Seven-a-side,nan
Hartstown Park,nan,nan,53.393968080238,-6.41211092873122,"Oakview Rise, Hartstown, Blanchardstown-Blakestown ED, Clonsilla, Fingal, County Dublin, Leinster, D15 A3A8, Ireland",Seven-a-side,nan
Hartstown Park,nan,nan,53.3963384827422,-6.41292397066233,"Blakestown, Blanchardstown-Blakestown ED, Clonsilla, Fingal, County Dublin, Leinster, D15 A3A8, Ireland",Seven-a-side,nan
Hartstown Park,nan,nan,53.3962424394402,-6.41037074601988,"Blakestown, Blanchardstown-Blakestown ED, Dublin 15, Fingal, County Dublin, Leinster, D15 A3A8, Ireland",Seven-a-side,nan
Mountview Park,nan,nan,53.3894534622967,-6.405522699176,"Mountview Youth & Community Centre, Mountview Road, Coolmine, Blanchardstown-Coolmine ED, Clonsilla, Fingal, County Dublin, Leinster, D15 W638, Ireland",Seven-a-side,nan
St. Mologa's Park,nan,nan,53.615899173763,-6.1854932149198,"Baths Road, Tankardstown, Balbriggan Urban ED, Balbriggan, Fingal, County Dublin, Leinster, K32 WY80, Ireland",Seven-a-side,nan
St. Mologa's Park,nan,nan,53.6156257951025,-6.18391354720681,"Lifeboat House, Baths Road, Tankardstown, Balbriggan Urban ED, Balbriggan, Fingal, County Dublin, Leinster, K32 WY80, Ireland",Seven-a-side,nan
Seagrange Park,nan,nan,53.3939238854099,-6.13880998370236,"Seagrange Road, Baldoyle, Baldoyle ED, Dublin 13, Fingal, County Dublin, Leinster, D13 NY11, Ireland",Seven-a-side,nan
Bayside School,nan,nan,53.3897700368883,-6.14914963464,"8, Alden Park, Kilbarrack Upper, Sutton ED, Dublin 13, Fingal, County Dublin, Leinster, 13, Ireland",Seven-a-side,nan
Pinewood,nan,nan,53.6065307243665,-6.17966815946838,"Lidl, Market Green, Balbriggan, Balbriggan Urban ED, Balbriggan, Fingal, County Dublin, Leinster, K32 TW27, Ireland",Seven-a-side,nan
St. Catherine's Park,nan,nan,53.3659085701132,-6.46947109846945,"St. Catherine's Park (Fingal), Lucan North ED, Fingal, County Dublin, Leinster, K78 EY17, Ireland",Seven-a-side,nan
Balbriggan Town Park,nan,nan,53.6036899774124,-6.18138459670146,"Balbriggan Cricket Club, Balbriggan Inner Relief Road Phase I, Balbriggan, Balbriggan Urban ED, Balbriggan, Fingal, County Dublin, Leinster, K32 KK33, Ireland",Soccer,nan
Balbriggan Town Park,nan,nan,53.604642797328,-6.18133609646353,"Glebe North Football Club, Market Green, Balbriggan, Balbriggan Urban ED, Balbriggan, Fingal, County Dublin, Leinster, K32 TW27, Ireland",Soccer,nan
Ball Alley/Remount,nan,nan,53.5251287367783,-6.16069534107133,"Lusk, Lusk ED, Lusk, Fingal, County Dublin, Leinster, K45 K650, Ireland",Soccer,nan
Newbridge Demesne,nan,nan,53.4905094536679,-6.1761856549248,"Turvey Avenue, Newbridge Demesne, Donabate ED, Donabate, Fingal, County Dublin, Leinster, K36 YA47, Ireland",Soccer,nan
Newbridge Demesne,nan,nan,53.4898838481802,-6.17645552041318,"Cricket Ground, Hearse Road, Newbridge Demesne, Donabate ED, Donabate, Fingal, County Dublin, Leinster, K36 FN27, Ireland",Soccer,nan
Newbridge Demesne,nan,nan,53.4892921655101,-6.17685013930942,"Cobbs Lane, Lanestown, Donabate ED, Donabate, Fingal, County Dublin, Leinster, K67 R2K0, Ireland",Soccer,nan
Newbridge Demesne,nan,nan,53.4886223910085,-6.17706018664759,"Newbridge Demesne, Donabate ED, Donabate, Fingal, County Dublin, Leinster, K36 YA47, Ireland",Soccer,nan
Carrickhill Park,nan,nan,53.4317487507021,-6.13942342627963,"Portmarnock Community School, Hill Court, Carrickhill, Portmarnock North ED, Portmarnock, Fingal, County Dublin, Leinster, D13 F766, Ireland",Soccer,nan
St. Catherine's Park,nan,nan,53.5390290099585,-6.09337811422159,"Skerries Road, Carnhill, Rush ED, Rush, Fingal, County Dublin, Leinster, K56 ED95, Ireland",Soccer,nan
St. Catherine's Park,nan,nan,53.5385517841112,-6.09769692154911,"Saint Catherine's Crescent, Rush Demesne, Rush ED, Rush, Fingal, County Dublin, Leinster, K56 ED95, Ireland",Soccer,nan
Swords Manor,nan,nan,53.4590387364441,-6.25115272940777,"Brackenstown Road, Mooretown, Swords-Glasmore ED, Swords, Fingal, County Dublin, Leinster, K67 TOX3, Ireland",Soccer,nan
Ward River Valley,nan,nan,53.455855532962,-6.2448869208849,"soccer pitch, Brookdale Lawns, Brookdale, Hilltown, Swords-Forrest ED, Swords, Fingal, County Dublin, Leinster, K67 TOX3, Ireland",Soccer,nan
Balheary Park,nan,nan,53.4684264557609,-6.21460533218805,"Lissenhall Road, Balheary Demesne, Swords Village ED, Swords, Fingal, County Dublin, Leinster, K67 X8Y2, Ireland",Soccer,nan
Balheary Park,nan,nan,53.4692562248938,-6.21393312690765,"Tigín Montessori School, Lissenhall Road, Balheary Demesne, Swords Village ED, Swords, Fingal, County Dublin, Leinster, K67 X8Y2, Ireland",Soccer,nan
Balheary Reservoir,nan,nan,53.4722086332706,-6.22455060320527,"Swords Celtic pitch 3, Balheary Road, Newtown, Swords-Lissenhall ED, Swords, Fingal, County Dublin, Leinster, K67 KR77, Ireland",Soccer,nan
Balheary Reservoir,nan,nan,53.4727532143964,-6.22437816202542,"Swords Celtic pitch 2, Balheary Road, Newtown, Swords-Lissenhall ED, Swords, Fingal, County Dublin, Leinster, K67 KR77, Ireland",Soccer,nan
Balheary Reservoir,nan,nan,53.4729304703839,-6.22727355091584,"Swords Celtic pitch 1, Newtown Cottages, Newtown, Swords-Lissenhall ED, Swords, Fingal, County Dublin, Leinster, K67 KR77, Ireland",Soccer,nan
Hartstown Park,nan,nan,53.3957998908194,-6.41371466277525,"Hartstown Community School, Hartstown Road, Hartstown, Blanchardstown-Blakestown ED, Clonsilla, Fingal, County Dublin, Leinster, D15 A3A8, Ireland",Soccer,nan
Hartstown Park,nan,nan,53.3944687820642,-6.41258990537217,"Oakview Park, Hartstown, Blanchardstown-Blakestown ED, Clonsilla, Fingal, County Dublin, Leinster, D15 A3A8, Ireland",Soccer,nan
Mourne View,nan,nan,53.5801702491656,-6.12271431946141,"The Green, Townparks, Skerries ED, Skerries, Fingal, County Dublin, Leinster, K34 Y567, Ireland",Soccer,nan
Mourne View,nan,nan,53.5805331308631,-6.12498779672751,"1, Mourne Place, Townparks, Skerries ED, Skerries, Fingal, County Dublin, Leinster, K34 Y567, Ireland",Soccer,nan
Town Park,nan,nan,53.5756675954932,-6.1079062121554,"The Kybe, Rope Walk, Townparks, Skerries ED, Skerries, Fingal, County Dublin, Leinster, K34 Y567, Ireland",Soccer,nan
Coolmine Park,nan,nan,53.3895336791179,-6.39255116935086,"Verona Sports and Leisure Club, Westend Village, Blanchardstown, Blanchardstown-Coolmine ED, Blanchardstown, Fingal, County Dublin, Leinster, D15 RY73, Ireland",Soccer,nan
Mountview Park,nan,nan,53.3889597054201,-6.40701737101347,"Saint Philip's National Schools, Mountview Road, Coolmine, Blanchardstown-Coolmine ED, Clonsilla, Fingal, County Dublin, Leinster, D15 W638, Ireland",Soccer,nan
Corduff Park,nan,nan,53.3973874661984,-6.37967519132997,"Edgewood Lawn, Corduff, Blanchardstown-Corduff ED, Blanchardstown, Fingal, County Dublin, Leinster, D15 YA32, Ireland",Soccer,nan
Parslickstown,nan,nan,53.4066945029507,-6.40399522712078,"Damastown Way, Parslickstown, Blanchardstown-Tyrrelstown ED, Clonsilla, Fingal, County Dublin, Leinster, D15 X925, Ireland",Soccer,nan
Lady's Well Park,nan,nan,53.4074098702983,-6.38816766383641,"Dromheath Avenue, Buzzardstown, Blanchardstown-Mulhuddart ED, Blanchardstown, Fingal, County Dublin, Leinster, D15 T1FD, Ireland",Soccer,nan
Danny's Pitches,nan,nan,53.4120540557149,-6.39018642298396,"Church Road, Tyrrelstown, Blanchardstown-Mulhuddart ED, Blanchardstown, Fingal, County Dublin, Leinster, DUBLIN 15, Ireland",Soccer,nan
Grace O'Malley Park,nan,nan,53.3850343852821,-6.06851225756661,"Howth Primary School, Scoil Mhuire, Tuckett's Lane, Howth, Howth ED, Dublin 13, Fingal, County Dublin, Leinster, D13 VY50, Ireland",Soccer,nan
Corballis Road,nan,nan,53.4838075282266,-6.13634599517865,"New Road, Donabate Distributor Road, Donabate, Donabate ED, Donabate, Fingal, County Dublin, Leinster, K36 YA47, Ireland",Soccer,nan
Laurel Lodge,nan,nan,53.3810956436847,-6.37124558642032,"Platform 2, Royal Canal Way, Blanchardstown, Blanchardstown-Roselawn ED, Blanchardstown, Fingal, County Dublin, Leinster, D15 NX98, Ireland",Soccer,nan
St. Mologa's Park,nan,nan,53.6170745642375,-6.18693504548687,"Lambeecher, Tankardstown, Balbriggan Urban ED, Balbriggan, Fingal, County Dublin, Leinster, K32 WY80, Ireland",Soccer,nan
St. Mologa's Park,nan,nan,53.6166955300167,-6.18816813012173,"St. Molaga's National School, Lambeecher, Tankardstown, Balbriggan Urban ED, Balbriggan, Fingal, County Dublin, Leinster, K32 WY80, Ireland",Soccer,nan
Craoibhinn Park,nan,nan,53.6050860841386,-6.17632209518723,"Craoibhin Park, Balbriggan, Balbriggan Urban ED, Balbriggan, Fingal, County Dublin, Leinster, K32 TW27, Ireland",Soccer,nan
Seagrange Park,nan,nan,53.3960183001863,-6.13543658163634,"Seagrange Avenue, Baldoyle, Baldoyle ED, Dublin 13, Fingal, County Dublin, Leinster, D13 NY11, Ireland",Soccer,nan
Seagrange Park,nan,nan,53.3950396442173,-6.1358101939479,"Seagrange Drive, Baldoyle, Baldoyle ED, Dublin 13, Fingal, County Dublin, Leinster, D13 NY11, Ireland",Soccer,nan
Seagrange Park,nan,nan,53.3923690428337,-6.13478697030993,"Track Side Tennis Club, Seacliff Avenue, Kilbarrack Lower, Baldoyle ED, Dublin 13, Fingal, County Dublin, Leinster, D13 NY11, Ireland",Soccer,nan
Balrothery Park,nan,nan,53.5842587186935,-6.19133130165668,"Glebe South, Balbriggan Rural ED, Balrothery, Fingal, County Dublin, Leinster, K32 RY76, Ireland",GAA,nan
St. Catherine's Park,nan,nan,53.3667576285142,-6.47043430357714,"St. Catherine's Park (Fingal), Lucan North ED, Fingal, County Dublin, Leinster, K78 EY17, Ireland",Soccer,nan
Seagrange Park,nan,nan,53.3924305120341,-6.13627665607428,"Track Side Tennis Club, Seacliff Avenue, Kilbarrack Lower, Baldoyle ED, Dublin 13, Fingal, County Dublin, Leinster, D13 NY11, Ireland",Tennis Courts,nan
St. Catherine's Park,nan,nan,53.3711170322279,-6.46750304531701,"Royal Canal Way, St. Catherine's Park (Fingal), Lucan North ED, The Municipal District of Celbridge — Leixlip, Fingal, County Dublin, Leinster, K78 EY17, Ireland",GAA,nan
Hazelbury Park,nan,nan,53.401055350055,-6.42839686946297,"Castaheany, Blanchardstown-Blakestown ED, Ongar, Fingal, County Dublin, Leinster, D15 WD5P, Ireland",GAA,nan
Porterstown Park,nan,nan,53.3700809031924,-6.40425938637453,"Luttrellstown Road, Diswellstown, Castleknock-Knockmaroon ED, Clonsilla, Fingal, County Dublin, Leinster, 22, Ireland",Soccer,nan
Robswall,nan,nan,53.4418690708661,-6.13572668724154,"Robswalls, Malahide East ED, Malahide, Fingal, County Dublin, Leinster, K36 EW63, Ireland",Soccer,nan
Balheary Reservoir,nan,nan,53.47199227978,-6.22303389154358,"Swords Celtic pitch 4, Balheary Road, Newtown, Swords-Lissenhall ED, Swords, Fingal, County Dublin, Leinster, K67 KR77, Ireland",Soccer,nan
